{"type":"FeatureCollection","features":[{"type":"Feature","geometry":{"type":"Point","coordinates":[141.34694,43.06417]},"properties":{"name":"北海道","name:ja":"北海道","name:nonlatin":"北海道","name:latin":"Hokkaido","name:en":"Hokkaido","code":"01"}},{"type":"Feature","geometry":{"type":"Point","coordinates":[140.74,40.82444]},"properties":{"name":"青森県","name:ja":"青森県","name:nonlatin":"青森県","name:latin":"Aomori","name:en":"Aomori","code":"02"}},{"type":"Feature","geometry":{"type":"Point","coordinates":[141.1525,39.70361]},"properties":{"name":"岩手県","name:ja":"岩手県","name:nonlatin":"岩手県","name:latin":"Iwate","name:en":"Iwate","code":"03"}},{"type":"Feature","geometry":{"type":"Point","coordinates":[140.87194,38.26889]},"properties":{"name":"宮城県","name:ja":"宮城県","name:nonlatin":"宮城県","name:latin":"Miyagi","name:en":"Miyagi","code":"04"}},{"type":"Feature","geometry":{"type":"Point","coordinates":[140.1025,39.71861]},"properties":{"name":"秋田県","name:ja":"秋田県","name:nonlatin":"秋田県","name:latin":"Akita","name:en":"Akita","code":"05"}},{"type":"Feature","geometry":{"type":"Point","coordinates":[140.36333,38.24056]},"properties":{"name":"山形県","name:ja":"山形県","name:nonlatin":"山形県","name:latin":"Yamagata","name:en":"Yamagata","code":"06"}},{"type":"Feature","geometry":{"type":"Point","coordinates":[140.46778,37.75]},"properties":{"name":"福島県","name:ja":"福島県","name:nonlatin":"福島県","name:latin":"Fukushima","name:en":"Fukushima","code":"07"}},{"type":"Feature","geometry":{"type":"Point","coordinates":[140.44667,36.34139]},"properties":{"name":"茨城県","name:ja":"茨城県","name:nonlatin":"茨城県","name:latin":"Ibaraki","name:en":"Ibaraki","code":"08"}},{"type":"Feature","geometry":{"type":"Point","coordinates":[139.88361,36.56583]},"properties":{"name":"栃木県","name:ja":"栃木県","name:nonlatin":"栃木県","name:latin":"Tochigi","name:en":"Tochigi","code":"09"}},{"type":"Feature","geometry":{"type":"Point","coordinates":[139.06083,36.39111]},"properties":{"name":"群馬県","name:ja":"群馬県","name:nonlatin":"群馬県","name:latin":"Gunma","name:en":"Gunma","code":"10"}},{"type":"Feature","geometry":{"type":"Point","coordinates":[139.64889,35.85694]},"properties":{"name":"埼玉県","name:ja":"埼玉県","name:nonlatin":"埼玉県","name:latin":"Saitama","name:en":"Saitama","code":"11"}},{"type":"Feature","geometry":{"type":"Point","coordinates":[140.12333,35.60472]},"properties":{"name":"千葉県","name:ja":"千葉県","name:nonlatin":"千葉県","name:latin":"Chiba","name:en":"Chiba","code":"12"}},{"type":"Feature","geometry":{"type":"Point","coordinates":[139.69167,35.68944]},"properties":{"name":"東京都","name:ja":"東京都","name:nonlatin":"東京都","name:latin":"Tokyo","name:en":"Tokyo","code":"13"}},{"type":"Feature","geometry":{"type":"Point","coordinates":[139.6425,35.44778]},"properties":{"name":"神奈川県","name:ja":"神奈川県","name:nonlatin":"神奈川県","name:latin":"Kanagawa","name:en":"Kanagawa","code":"14"}},{"type":"Feature","geometry":{"type":"Point","coordinates":[139.02361,37.90222]},"properties":{"name":"新潟県","name:ja":"新潟県","name:nonlatin":"新潟県","name:latin":"Niigata","name:en":"Niigata","code":"15"}},{"type":"Feature","geometry":{"type":"Point","coordinates":[137.21139,36.69528]},"properties":{"name":"富山県","name:ja":"富山県","name:nonlatin":"富山県","name:latin":"Toyama","name:en":"Toyama","code":"16"}},{"type":"Feature","geometry":{"type":"Point","coordinates":[136.62556,36.59444]},"properties":{"name":"石川県","name:ja":"石川県","name:nonlatin":"石川県","name:latin":"Ishikawa","name:en":"Ishikawa","code":"17"}},{"type":"Feature","geometry":{"type":"Point","coordinates":[136.22194,36.06528]},"properties":{"name":"福井県","name:ja":"福井県","name:nonlatin":"福井県","name:latin":"Fukui","name:en":"Fukui","code":"18"}},{"type":"Feature","geometry":{"type":"Point","coordinates":[138.56833,35.66389]},"properties":{"name":"山梨県","name:ja":"山梨県","name:nonlatin":"山梨県","name:latin":"Yamanashi","name:en":"Yamanashi","code":"19"}},{"type":"Feature","geometry":{"type":"Point","coordinates":[138.18111,36.65139]},"properties":{"name":"長野県","name:ja":"長野県","name:nonlatin":"長野県","name:latin":"Nagano","name:en":"Nagano","code":"20"}},{"type":"Feature","geometry":{"type":"Point","coordinates":[136.72222,35.39111]},"properties":{"name":"岐阜県","name:ja":"岐阜県","name:nonlatin":"岐阜県","name:latin":"Gifu","name:en":"Gifu","code":"21"}},{"type":"Feature","geometry":{"type":"Point","coordinates":[138.38306,34.97694]},"properties":{"name":"静岡県","name:ja":"静岡県","name:nonlatin":"静岡県","name:latin":"Shizuoka","name:en":"Shizuoka","code":"22"}},{"type":"Feature","geometry":{"type":"Point","coordinates":[136.90667,35.18028]},"properties":{"name":"愛知県","name:ja":"愛知県","name:nonlatin":"愛知県","name:latin":"Aichi","name:en":"Aichi","code":"23"}},{"type":"Feature","geometry":{"type":"Point","coordinates":[136.50861,34.73028]},"properties":{"name":"三重県","name:ja":"三重県","name:nonlatin":"三重県","name:latin":"Mie","name:en":"Mie","code":"24"}},{"type":"Feature","geometry":{"type":"Point","coordinates":[135.86833,35.00444]},"properties":{"name":"滋賀県","name:ja":"滋賀県","name:nonlatin":"滋賀県","name:latin":"Shiga","name:en":"Shiga","code":"25"}},{"type":"Feature","geometry":{"type":"Point","coordinates":[135.75556,35.02139]},"properties":{"name":"京都府","name:ja":"京都府","name:nonlatin":"京都府","name:latin":"Kyoto","name:en":"Kyoto","code":"26"}},{"type":"Feature","geometry":{"type":"Point","coordinates":[135.52,34.68639]},"properties":{"name":"大阪府","name:ja":"大阪府","name:nonlatin":"大阪府","name:latin":"Osaka","name:en":"Osaka","code":"27"}},{"type":"Feature","geometry":{"type":"Point","coordinates":[135.18306,34.69139]},"properties":{"name":"兵庫県","name:ja":"兵庫県","name:nonlatin":"兵庫県","name:latin":"Hyogo","name:en":"Hyogo","code":"28"}},{"type":"Feature","geometry":{"type":"Point","coordinates":[135.83278,34.68528]},"properties":{"name":"奈良県","name:ja":"奈良県","name:nonlatin":"奈良県","name:latin":"Nara","name:en":"Nara","code":"29"}},{"type":"Feature","geometry":{"type":"Point","coordinates":[135.1675,34.22611]},"properties":{"name":"和歌山県","name:ja":"和歌山県","name:nonlatin":"和歌山県","name:latin":"Wakayama","name:en":"Wakayama","code":"30"}},{"type":"Feature","geometry":{"type":"Point","coordinates":[134.23833,35.50361]},"properties":{"name":"鳥取県","name:ja":"鳥取県","name:nonlatin":"鳥取県","name:latin":"Tottori","name:en":"Tottori","code":"31"}},{"type":"Feature","geometry":{"type":"Point","coordinates":[133.05056,35.47222]},"properties":{"name":"島根県","name:ja":"島根県","name:nonlatin":"島根県","name:latin":"Shimane","name:en":"Shimane","code":"32"}},{"type":"Feature","geometry":{"type":"Point","coordinates":[133.935,34.66167]},"properties":{"name":"岡山県","name:ja":"岡山県","name:nonlatin":"岡山県","name:latin":"Okayama","name:en":"Okayama","code":"33"}},{"type":"Feature","geometry":{"type":"Point","coordinates":[132.45944,34.39639]},"properties":{"name":"広島県","name:ja":"広島県","name:nonlatin":"広島県","name:latin":"Hiroshima","name:en":"Hiroshima","code":"34"}},{"type":"Feature","geometry":{"type":"Point","coordinates":[131.47139,34.18583]},"properties":{"name":"山口県","name:ja":"山口県","name:nonlatin":"山口県","name:latin":"Yamaguchi","name:en":"Yamaguchi","code":"35"}},{"type":"Feature","geometry":{"type":"Point","coordinates":[134.55944,34.06583]},"properties":{"name":"徳島県","name:ja":"徳島県","name:nonlatin":"徳島県","name:latin":"Tokushima","name:en":"Tokushima","code":"36"}},{"type":"Feature","geometry":{"type":"Point","coordinates":[134.04333,34.34028]},"properties":{"name":"香川県","name:ja":"香川県","name:nonlatin":"香川県","name:latin":"Kagawa","name:en":"Kagawa","code":"37"}},{"type":"Feature","geometry":{"type":"Point","coordinates":[132.76611,33.84167]},"properties":{"name":"愛媛県","name:ja":"愛媛県","name:nonlatin":"愛媛県","name:latin":"Ehime","name:en":"Ehime","code":"38"}},{"type":"Feature","geometry":{"type":"Point","coordinates":[133.53111,33.55972]},"properties":{"name":"高知県","name:ja":"高知県","name:nonlatin":"高知県","name:latin":"Kochi","name:en":"Kochi","code":"39"}},{"type":"Feature","geometry":{"type":"Point","coordinates":[130.41806,33.60639]},"properties":{"name":"福岡県","name:ja":"福岡県","name:nonlatin":"福岡県","name:latin":"Fukuoka","name:en":"Fukuoka","code":"40"}},{"type":"Feature","geometry":{"type":"Point","coordinates":[130.29889,33.24944]},"properties":{"name":"佐賀県","name:ja":"佐賀県","name:nonlatin":"佐賀県","name:latin":"Saga","name:en":"Saga","code":"41"}},{"type":"Feature","geometry":{"type":"Point","coordinates":[129.87361,32.74472]},"properties":{"name":"長崎県","name:ja":"長崎県","name:nonlatin":"長崎県","name:latin":"Nagasaki","name:en":"Nagasaki","code":"42"}},{"type":"Feature","geometry":{"type":"Point","coordinates":[130.74167,32.78972]},"properties":{"name":"熊本県","name:ja":"熊本県","name:nonlatin":"熊本県","name:latin":"Kumamoto","name:en":"Kumamoto","code":"43"}},{"type":"Feature","geometry":{"type":"Point","coordinates":[131.6125,33.23806]},"properties":{"name":"大分県","name:ja":"大分県","name:nonlatin":"大分県","name:latin":"Oita","name:en":"Oita","code":"44"}},{"type":"Feature","geometry":{"type":"Point","coordinates":[131.42389,31.91111]},"properties":{"name":"宮崎県","name:ja":"宮崎県","name:nonlatin":"宮崎県","name:latin":"Miyazaki","name:en":"Miyazaki","code":"45"}},{"type":"Feature","geometry":{"type":"Point","coordinates":[130.55806,31.56028]},"properties":{"name":"鹿児島県","name:ja":"鹿児島県","name:nonlatin":"鹿児島県","name:latin":"Kagoshima","name:en":"Kagoshima","code":"46"}},{"type":"Feature","geometry":{"type":"Point","coordinates":[127.68111,26.2125]},"properties":{"name":"沖縄県","name:ja":"沖縄県","name:nonlatin":"沖縄県","name:latin":"Okinawa","name:en":"Okinawa","code":"47"}}]}